[{"OBJECT_NAME":"ONEWEB-0027","OBJECT_ID":"2020-020J","EPOCH":"2025-11-20T06:05:10.266720","MEAN_MOTION":13.17649125,"ECCENTRICITY":0.00017018,"INCLINATION":87.9139,"RA_OF_ASC_NODE":47.3856,"ARG_OF_PERICENTER":88.4284,"MEAN_ANOMALY":271.7042,"EPHEMERIS_TYPE":0,"CLASSIFICATION_TYPE":"U","NORAD_CAT_ID":45432,"ELEMENT_SET_NO":999,"REV_AT_EPOCH":27884,"BSTAR":0.00016242728,"MEAN_MOTION_DOT":7.6e-7,"MEAN_MOTION_DDOT":0},{"OBJECT_NAME":"ONEWEB-0064","OBJECT_ID":"2020-020K","EPOCH":"2025-11-20T06:50:35.232000","MEAN_MOTION":13.11413643,"ECCENTRICITY":0.00016889,"INCLINATION":87.8862,"RA_OF_ASC_NODE":62.6731,"ARG_OF_PERICENTER":97.5678,"MEAN_ANOMALY":262.5642,"EPHEMERIS_TYPE":0,"CLASSIFICATION_TYPE":"U","NORAD_CAT_ID":45433,"ELEMENT_SET_NO":999,"REV_AT_EPOCH":27530,"BSTAR":0.00039594723,"MEAN_MOTION_DOT":1.53e-6,"MEAN_MOTION_DDOT":0},{"OBJECT_NAME":"ONEWEB-0018","OBJECT_ID":"2020-020L","EPOCH":"2025-11-20T05:47:06.209376","MEAN_MOTION":13.11417371,"ECCENTRICITY":0.00018074,"INCLINATION":87.8874,"RA_OF_ASC_NODE":62.67,"ARG_OF_PERICENTER":106.0317,"MEAN_ANOMALY":254.1011,"EPHEMERIS_TYPE":0,"CLASSIFICATION_TYPE":"U","NORAD_CAT_ID":45434,"ELEMENT_SET_NO":999,"REV_AT_EPOCH":27524,"BSTAR":-0.00087040787,"MEAN_MOTION_DOT":-2.96e-6,"MEAN_MOTION_DDOT":0},{"OBJECT_NAME":"ONEWEB-0083","OBJECT_ID":"2020-020M","EPOCH":"2025-11-20T05:33:39.463200","MEAN_MOTION":13.11415649,"ECCENTRICITY":0.00016884,"INCLINATION":87.8874,"RA_OF_ASC_NODE":62.6617,"ARG_OF_PERICENTER":101.6821,"MEAN_ANOMALY":258.4496,"EPHEMERIS_TYPE":0,"CLASSIFICATION_TYPE":"U","NORAD_CAT_ID":45435,"ELEMENT_SET_NO":999,"REV_AT_EPOCH":27528,"BSTAR":-0.001564985,"MEAN_MOTION_DOT":-5.42e-6,"MEAN_MOTION_DDOT":0},{"OBJECT_NAME":"ONEWEB-0095","OBJECT_ID":"2020-020N","EPOCH":"2025-11-20T05:20:26.752704","MEAN_MOTION":13.1141577,"ECCENTRICITY":9.733e-5,"INCLINATION":87.8864,"RA_OF_ASC_NODE":62.6758,"ARG_OF_PERICENTER":87.5433,"MEAN_ANOMALY":272.5806,"EPHEMERIS_TYPE":0,"CLASSIFICATION_TYPE":"U","NORAD_CAT_ID":45436,"ELEMENT_SET_NO":999,"REV_AT_EPOCH":27528,"BSTAR":-0.0011551422,"MEAN_MOTION_DOT":-3.97e-6,"MEAN_MOTION_DDOT":0},{"OBJECT_NAME":"ONEWEB-0092","OBJECT_ID":"2020-020P","EPOCH":"2025-11-20T06:29:50.321184","MEAN_MOTION":13.11416639,"ECCENTRICITY":0.00014083,"INCLINATION":87.8866,"RA_OF_ASC_NODE":62.6637,"ARG_OF_PERICENTER":101.5854,"MEAN_ANOMALY":258.5432,"EPHEMERIS_TYPE":0,"CLASSIFICATION_TYPE":"U","NORAD_CAT_ID":45437,"ELEMENT_SET_NO":999,"REV_AT_EPOCH":27540,"BSTAR":0.0015960922,"MEAN_MOTION_DOT":5.78e-6,"MEAN_MOTION_DDOT":0},{"OBJECT_NAME":"ONEWEB-0085","OBJECT_ID":"2020-020Q","EPOCH":"2025-11-20T07:22:19.510464","MEAN_MOTION":13.11416953,"ECCENTRICITY":0.00015887,"INCLINATION":87.8863,"RA_OF_ASC_NODE":62.6664,"ARG_OF_PERICENTER":103.1987,"MEAN_ANOMALY":256.9318,"EPHEMERIS_TYPE":0,"CLASSIFICATION_TYPE":"U","NORAD_CAT_ID":45438,"ELEMENT_SET_NO":999,"REV_AT_EPOCH":27529,"BSTAR":-0.0014657731,"MEAN_MOTION_DOT":-5.07e-6,"MEAN_MOTION_DDOT":0},{"OBJECT_NAME":"ONEWEB-0096","OBJECT_ID":"2020-020R","EPOCH":"2025-11-20T05:34:53.780160","MEAN_MOTION":13.11416604,"ECCENTRICITY":0.0001729,"INCLINATION":87.8877,"RA_OF_ASC_NODE":62.6597,"ARG_OF_PERICENTER":108.0869,"MEAN_ANOMALY":252.0447,"EPHEMERIS_TYPE":0,"CLASSIFICATION_TYPE":"U","NORAD_CAT_ID":45439,"ELEMENT_SET_NO":999,"REV_AT_EPOCH":27527,"BSTAR":-0.0012791754,"MEAN_MOTION_DOT":-4.41e-6,"MEAN_MOTION_DDOT":0},{"OBJECT_NAME":"ONEWEB-0037","OBJECT_ID":"2020-020S","EPOCH":"2025-11-20T05:06:49.329216","MEAN_MOTION":13.1141453,"ECCENTRICITY":0.00015511,"INCLINATION":87.8881,"RA_OF_ASC_NODE":62.6315,"ARG_OF_PERICENTER":103.043,"MEAN_ANOMALY":257.0872,"EPHEMERIS_TYPE":0,"CLASSIFICATION_TYPE":"U","NORAD_CAT_ID":45440,"ELEMENT_SET_NO":999,"REV_AT_EPOCH":27530,"BSTAR":-0.00017834643,"MEAN_MOTION_DOT":-5.1e-7,"MEAN_MOTION_DDOT":0},{"OBJECT_NAME":"ONEWEB-0042","OBJECT_ID":"2020-020T","EPOCH":"2025-11-20T07:09:55.056960","MEAN_MOTION":13.11415806,"ECCENTRICITY":0.00015469,"INCLINATION":87.887,"RA_OF_ASC_NODE":62.6464,"ARG_OF_PERICENTER":107.1864,"MEAN_ANOMALY":252.9433,"EPHEMERIS_TYPE":0,"CLASSIFICATION_TYPE":"U","NORAD_CAT_ID":45441,"ELEMENT_SET_NO":999,"REV_AT_EPOCH":27528,"BSTAR":-0.0010449045,"MEAN_MOTION_DOT":-3.58e-6,"MEAN_MOTION_DDOT":0},{"OBJECT_NAME":"ONEWEB-0098","OBJECT_ID":"2020-020U","EPOCH":"2025-11-20T05:14:08.466720","MEAN_MOTION":13.11416356,"ECCENTRICITY":0.0001698,"INCLINATION":87.8872,"RA_OF_ASC_NODE":62.6744,"ARG_OF_PERICENTER":101.3704,"MEAN_ANOMALY":258.7615,"EPHEMERIS_TYPE":0,"CLASSIFICATION_TYPE":"U","NORAD_CAT_ID":45442,"ELEMENT_SET_NO":999,"REV_AT_EPOCH":27525,"BSTAR":-0.00079066913,"MEAN_MOTION_DOT":-2.68e-6,"MEAN_MOTION_DDOT":0},{"OBJECT_NAME":"ONEWEB-0055","OBJECT_ID":"2020-020V","EPOCH":"2025-11-20T06:39:36.280800","MEAN_MOTION":13.11414877,"ECCENTRICITY":0.00016978,"INCLINATION":87.8869,"RA_OF_ASC_NODE":62.6634,"ARG_OF_PERICENTER":101.8247,"MEAN_ANOMALY":258.3072,"EPHEMERIS_TYPE":0,"CLASSIFICATION_TYPE":"U","NORAD_CAT_ID":45443,"ELEMENT_SET_NO":999,"REV_AT_EPOCH":27523,"BSTAR":0.0012291488,"MEAN_MOTION_DOT":4.48e-6,"MEAN_MOTION_DDOT":0},{"OBJECT_NAME":"ONEWEB-0093","OBJECT_ID":"2020-020W","EPOCH":"2025-11-20T06:04:24.437568","MEAN_MOTION":13.11417535,"ECCENTRICITY":0.00016555,"INCLINATION":87.8872,"RA_OF_ASC_NODE":62.6546,"ARG_OF_PERICENTER":118.2731,"MEAN_ANOMALY":241.8564,"EPHEMERIS_TYPE":0,"CLASSIFICATION_TYPE":"U","NORAD_CAT_ID":45444,"ELEMENT_SET_NO":999,"REV_AT_EPOCH":27529,"BSTAR":0.00041881275,"MEAN_MOTION_DOT":1.61e-6,"MEAN_MOTION_DDOT":0},{"OBJECT_NAME":"ONEWEB-0029","OBJECT_ID":"2020-020X","EPOCH":"2025-11-20T06:27:24.016608","MEAN_MOTION":13.11417869,"ECCENTRICITY":0.00017071,"INCLINATION":87.8872,"RA_OF_ASC_NODE":62.664,"ARG_OF_PERICENTER":107.3758,"MEAN_ANOMALY":252.7557,"EPHEMERIS_TYPE":0,"CLASSIFICATION_TYPE":"U","NORAD_CAT_ID":45445,"ELEMENT_SET_NO":999,"REV_AT_EPOCH":27527,"BSTAR":0.0015835018,"MEAN_MOTION_DOT":5.74e-6,"MEAN_MOTION_DDOT":0},{"OBJECT_NAME":"ONEWEB-0068","OBJECT_ID":"2020-020Y","EPOCH":"2025-11-20T06:04:00.744960","MEAN_MOTION":13.11417113,"ECCENTRICITY":0.00017838,"INCLINATION":87.8875,"RA_OF_ASC_NODE":62.6564,"ARG_OF_PERICENTER":108.1665,"MEAN_ANOMALY":251.9658,"EPHEMERIS_TYPE":0,"CLASSIFICATION_TYPE":"U","NORAD_CAT_ID":45446,"ELEMENT_SET_NO":999,"REV_AT_EPOCH":27521,"BSTAR":0.00058286014,"MEAN_MOTION_DOT":2.19e-6,"MEAN_MOTION_DDOT":0},{"OBJECT_NAME":"ONEWEB-0046","OBJECT_ID":"2020-020Z","EPOCH":"2025-11-20T05:51:59.400000","MEAN_MOTION":13.11418216,"ECCENTRICITY":0.00014644,"INCLINATION":87.8877,"RA_OF_ASC_NODE":62.6668,"ARG_OF_PERICENTER":108.1308,"MEAN_ANOMALY":251.998,"EPHEMERIS_TYPE":0,"CLASSIFICATION_TYPE":"U","NORAD_CAT_ID":45447,"ELEMENT_SET_NO":999,"REV_AT_EPOCH":27522,"BSTAR":-0.00039020753,"MEAN_MOTION_DOT":-1.26e-6,"MEAN_MOTION_DDOT":0},{"OBJECT_NAME":"ONEWEB-0063","OBJECT_ID":"2020-020AA","EPOCH":"2025-11-20T06:33:30.570336","MEAN_MOTION":13.11415804,"ECCENTRICITY":0.00014087,"INCLINATION":87.8871,"RA_OF_ASC_NODE":62.6581,"ARG_OF_PERICENTER":103.2106,"MEAN_ANOMALY":256.9179,"EPHEMERIS_TYPE":0,"CLASSIFICATION_TYPE":"U","NORAD_CAT_ID":45448,"ELEMENT_SET_NO":999,"REV_AT_EPOCH":27531,"BSTAR":0.001506112,"MEAN_MOTION_DOT":5.46e-6,"MEAN_MOTION_DDOT":0},{"OBJECT_NAME":"ONEWEB-0019","OBJECT_ID":"2020-020AB","EPOCH":"2025-11-20T05:55:38.209728","MEAN_MOTION":13.11418925,"ECCENTRICITY":0.00017763,"INCLINATION":87.8858,"RA_OF_ASC_NODE":62.6754,"ARG_OF_PERICENTER":102.8837,"MEAN_ANOMALY":257.249,"EPHEMERIS_TYPE":0,"CLASSIFICATION_TYPE":"U","NORAD_CAT_ID":45449,"ELEMENT_SET_NO":999,"REV_AT_EPOCH":27515,"BSTAR":-0.00088425061,"MEAN_MOTION_DOT":-3.01e-6,"MEAN_MOTION_DDOT":0},{"OBJECT_NAME":"ONEWEB-0094","OBJECT_ID":"2020-020AC","EPOCH":"2025-11-20T07:15:37.978560","MEAN_MOTION":13.17651986,"ECCENTRICITY":0.00017586,"INCLINATION":87.9138,"RA_OF_ASC_NODE":47.3702,"ARG_OF_PERICENTER":104.0331,"MEAN_ANOMALY":256.0997,"EPHEMERIS_TYPE":0,"CLASSIFICATION_TYPE":"U","NORAD_CAT_ID":45450,"ELEMENT_SET_NO":999,"REV_AT_EPOCH":27880,"BSTAR":0.00011668892,"MEAN_MOTION_DOT":5.8e-7,"MEAN_MOTION_DDOT":0},{"OBJECT_NAME":"ONEWEB-0087","OBJECT_ID":"2020-020AD","EPOCH":"2025-11-20T06:47:56.431392","MEAN_MOTION":13.11428771,"ECCENTRICITY":0.000189,"INCLINATION":87.89,"RA_OF_ASC_NODE":62.6148,"ARG_OF_PERICENTER":111.6013,"MEAN_ANOMALY":248.5317,"EPHEMERIS_TYPE":0,"CLASSIFICATION_TYPE":"U","NORAD_CAT_ID":45451,"ELEMENT_SET_NO":999,"REV_AT_EPOCH":27520,"BSTAR":-0.0079485745,"MEAN_MOTION_DOT":-2.804e-5,"MEAN_MOTION_DDOT":0},{"OBJECT_NAME":"ONEWEB-0082","OBJECT_ID":"2020-020AE","EPOCH":"2025-11-20T06:43:15.862080","MEAN_MOTION":13.1141448,"ECCENTRICITY":0.00018217,"INCLINATION":87.8881,"RA_OF_ASC_NODE":62.6382,"ARG_OF_PERICENTER":109.3808,"MEAN_ANOMALY":250.7517,"EPHEMERIS_TYPE":0,"CLASSIFICATION_TYPE":"U","NORAD_CAT_ID":45452,"ELEMENT_SET_NO":999,"REV_AT_EPOCH":27529,"BSTAR":0.0010393833,"MEAN_MOTION_DOT":3.81e-6,"MEAN_MOTION_DDOT":0},{"OBJECT_NAME":"ONEWEB-0050","OBJECT_ID":"2020-020AF","EPOCH":"2025-11-20T06:25:02.577216","MEAN_MOTION":14.89322622,"ECCENTRICITY":0.00047576,"INCLINATION":88.9222,"RA_OF_ASC_NODE":261.7102,"ARG_OF_PERICENTER":45.0866,"MEAN_ANOMALY":315.0748,"EPHEMERIS_TYPE":0,"CLASSIFICATION_TYPE":"U","NORAD_CAT_ID":45453,"ELEMENT_SET_NO":999,"REV_AT_EPOCH":30927,"BSTAR":-3.4267761e-5,"MEAN_MOTION_DOT":-3.02e-6,"MEAN_MOTION_DDOT":0},{"OBJECT_NAME":"ONEWEB-0034","OBJECT_ID":"2020-020AG","EPOCH":"2025-11-20T05:23:54.304512","MEAN_MOTION":13.11416959,"ECCENTRICITY":0.0001668,"INCLINATION":87.887,"RA_OF_ASC_NODE":62.6656,"ARG_OF_PERICENTER":103.6969,"MEAN_ANOMALY":256.4345,"EPHEMERIS_TYPE":0,"CLASSIFICATION_TYPE":"U","NORAD_CAT_ID":45454,"ELEMENT_SET_NO":999,"REV_AT_EPOCH":27520,"BSTAR":-0.0012922778,"MEAN_MOTION_DOT":-4.45e-6,"MEAN_MOTION_DDOT":0}]
